{"type": "FeatureCollection", "features": [ {"type": "Feature", "properties": {"norad_id": 34833, "name": "IRIDIUM 33 DEB", "group": "iridium-33-debris", "lat": 83.44564484325849, "lon": -164.29574584121087, "alt_km": 695.271110925938, "timestamp": "2025-12-17T09:00:17.533322+00:00", "meta": {"OBJECT_NAME": "IRIDIUM 33 DEB", "OBJECT_ID": "1997-051MH", "EPOCH": "2025-12-15T10:20:22.808256", "MEAN_MOTION": 14.52396502, "ECCENTRICITY": 0.00217393, "INCLINATION": 86.3936, "RA_OF_ASC_NODE": 49.8343, "ARG_OF_PERICENTER": 90.4638, "MEAN_ANOMALY": 284.9984, "EPHEMERIS_TYPE": 0, "CLASSIFICATION_TYPE": "U", "NORAD_CAT_ID": 34833, "ELEMENT_SET_NO": 999, "REV_AT_EPOCH": 87754, "BSTAR": 0.00054738094, "MEAN_MOTION_DOT": 2.256e-05, "MEAN_MOTION_DDOT": 0}, "tle": {"line1": "1 34833U 97051MH  25349.43081954  .00002256  00000+0  54738-3 0  9994", "line2": "2 34833  86.3936  49.8343 0021739  90.4638 284.9984 14.52396502877543"}}, "geometry": {"type": "Point", "coordinates": [-164.29574584121087, 83.44564484325849]}}, {"type": "Feature", "properties": {"norad_id": 34870, "name": "IRIDIUM 33 DEB", "group": "iridium-33-debris", "lat": 70.92800847589349, "lon": 121.2021484739997, "alt_km": 627.2205832297459, "timestamp": "2025-12-17T09:00:17.533336+00:00", "meta": {"OBJECT_NAME": "IRIDIUM 33 DEB", "OBJECT_ID": "1997-051MQ", "EPOCH": "2025-12-15T20:52:07.322880", "MEAN_MOTION": 14.7649675, "ECCENTRICITY": 0.00166647, "INCLINATION": 86.3098, "RA_OF_ASC_NODE": 312.6504, "ARG_OF_PERICENTER": 171.0618, "MEAN_ANOMALY": 219.7465, "EPHEMERIS_TYPE": 0, "CLASSIFICATION_TYPE": "U", "NORAD_CAT_ID": 34870, "ELEMENT_SET_NO": 999, "REV_AT_EPOCH": 88957, "BSTAR": 0.0009319058, "MEAN_MOTION_DOT": 6.529e-05, "MEAN_MOTION_DDOT": 0}, "tle": {"line1": "1 34870U 97051MQ  25349.86952920  .00006529  00000+0  93191-3 0  9995", "line2": "2 34870  86.3098 312.6504 0016664 171.0618 219.7465 14.76496750889576"}}, "geometry": {"type": "Point", "coordinates": [121.2021484739997, 70.92800847589349]}}, {"type": "Feature", "properties": {"norad_id": 34896, "name": "IRIDIUM 33 DEB", "group": "iridium-33-debris", "lat": 39.67523198976198, "lon": 141.5528215479154, "alt_km": 660.5195671864913, "timestamp": "2025-12-17T09:00:17.533356+00:00", "meta": {"OBJECT_NAME": "IRIDIUM 33 DEB", "OBJECT_ID": "1997-051MY", "EPOCH": "2025-12-16T04:34:33.251232", "MEAN_MOTION": 14.66314014, "ECCENTRICITY": 0.00246953, "INCLINATION": 86.3284, "RA_OF_ASC_NODE": 325.1372, "ARG_OF_PERICENTER": 201.8046, "MEAN_ANOMALY": 169.754, "EPHEMERIS_TYPE": 0, "CLASSIFICATION_TYPE": "U", "NORAD_CAT_ID": 34896, "ELEMENT_SET_NO": 999, "REV_AT_EPOCH": 87670, "BSTAR": 0.00064317524, "MEAN_MOTION_DOT": 3.586e-05, "MEAN_MOTION_DDOT": 0}, "tle": {"line1": "1 34896U 97051MY  25350.19066263  .00003586  00000+0  64318-3 0  9996", "line2": "2 34896  86.3284 325.1372 0024695 201.8046 169.7540 14.66314014876703"}}, "geometry": {"type": "Point", "coordinates": [141.5528215479154, 39.67523198976198]}}, {"type": "Feature", "properties": {"norad_id": 34926, "name": "IRIDIUM 33 DEB", "group": "iridium-33-debris", "lat": 31.468032893868386, "lon": 8.497554565416603, "alt_km": 730.8252253758656, "timestamp": "2025-12-17T09:00:17.533369+00:00", "meta": {"OBJECT_NAME": "IRIDIUM 33 DEB", "OBJECT_ID": "1997-051NF", "EPOCH": "2025-12-16T12:07:53.948928", "MEAN_MOTION": 14.54592592, "ECCENTRICITY": 0.00747935, "INCLINATION": 86.1325, "RA_OF_ASC_NODE": 6.5279, "ARG_OF_PERICENTER": 279.7661, "MEAN_ANOMALY": 239.6719, "EPHEMERIS_TYPE": 0, "CLASSIFICATION_TYPE": "U", "NORAD_CAT_ID": 34926, "ELEMENT_SET_NO": 999, "REV_AT_EPOCH": 86511, "BSTAR": 0.0039679953, "MEAN_MOTION_DOT": 0.00017628, "MEAN_MOTION_DDOT": 0}, "tle": {"line1": "1 34926U 97051NF  25350.50548552  .00017628  00000+0  39680-2 0  9996", "line2": "2 34926  86.1325   6.5279 0074793 279.7661 239.6719 14.54592592865112"}}, "geometry": {"type": "Point", "coordinates": [8.497554565416603, 31.468032893868386]}}, {"type": "Feature", "properties": {"norad_id": 34985, "name": "IRIDIUM 33 DEB", "group": "iridium-33-debris", "lat": -52.38121673739501, "lon": 50.17698198749507, "alt_km": 762.3166127644299, "timestamp": "2025-12-17T09:00:17.533379+00:00", "meta": {"OBJECT_NAME": "IRIDIUM 33 DEB", "OBJECT_ID": "1997-051NR", "EPOCH": "2025-12-15T23:04:55.240608", "MEAN_MOTION": 14.42024534, "ECCENTRICITY": 0.00210591, "INCLINATION": 86.3698, "RA_OF_ASC_NODE": 55.5052, "ARG_OF_PERICENTER": 208.7794, "MEAN_ANOMALY": 325.5524, "EPHEMERIS_TYPE": 0, "CLASSIFICATION_TYPE": "U", "NORAD_CAT_ID": 34985, "ELEMENT_SET_NO": 999, "REV_AT_EPOCH": 87221, "BSTAR": 0.00049841253, "MEAN_MOTION_DOT": 1.659e-05, "MEAN_MOTION_DDOT": 0}, "tle": {"line1": "1 34985U 97051NR  25349.96175047  .00001659  00000+0  49841-3 0  9992", "line2": "2 34985  86.3698  55.5052 0021059 208.7794 325.5524 14.42024534872212"}}, "geometry": {"type": "Point", "coordinates": [50.17698198749507, -52.38121673739501]}}, {"type": "Feature", "properties": {"norad_id": 35051, "name": "IRIDIUM 33 DEB", "group": "iridium-33-debris", "lat": -26.99245463831275, "lon": 4.96555966063753, "alt_km": 741.148873518956, "timestamp": "2025-12-17T09:00:17.533389+00:00", "meta": {"OBJECT_NAME": "IRIDIUM 33 DEB", "OBJECT_ID": "1997-051NX", "EPOCH": "2025-12-16T11:33:47.254752", "MEAN_MOTION": 14.4761513, "ECCENTRICITY": 0.00105455, "INCLINATION": 86.3243, "RA_OF_ASC_NODE": 7.2312, "ARG_OF_PERICENTER": 80.6225, "MEAN_ANOMALY": 279.617, "EPHEMERIS_TYPE": 0, "CLASSIFICATION_TYPE": "U", "NORAD_CAT_ID": 35051, "ELEMENT_SET_NO": 999, "REV_AT_EPOCH": 87050, "BSTAR": 0.0004582656, "MEAN_MOTION_DOT": 1.708e-05, "MEAN_MOTION_DDOT": 0}, "tle": {"line1": "1 35051U 97051NX  25350.48179693  .00001708  00000+0  45827-3 0  9992", "line2": "2 35051  86.3243   7.2312 0010545  80.6225 279.6170 14.47615130870509"}}, "geometry": {"type": "Point", "coordinates": [4.96555966063753, -26.99245463831275]}}, {"type": "Feature", "properties": {"norad_id": 35052, "name": "IRIDIUM 33 DEB", "group": "iridium-33-debris", "lat": -29.728211825569833, "lon": 16.38905555956073, "alt_km": 771.3719005382991, "timestamp": "2025-12-17T09:00:17.533400+00:00", "meta": {"OBJECT_NAME": "IRIDIUM 33 DEB", "OBJECT_ID": "1997-051NY", "EPOCH": "2025-12-16T08:06:03.894048", "MEAN_MOTION": 14.38496373, "ECCENTRICITY": 0.00135749, "INCLINATION": 86.3307, "RA_OF_ASC_NODE": 18.9338, "ARG_OF_PERICENTER": 75.0638, "MEAN_ANOMALY": 285.2062, "EPHEMERIS_TYPE": 0, "CLASSIFICATION_TYPE": "U", "NORAD_CAT_ID": 35052, "ELEMENT_SET_NO": 999, "REV_AT_EPOCH": 87327, "BSTAR": 0.00017087331, "MEAN_MOTION_DOT": 5.42e-06, "MEAN_MOTION_DDOT": 0}, "tle": {"line1": "1 35052U 97051NY  25350.33754507  .00000542  00000+0  17087-3 0  9992", "line2": "2 35052  86.3307  18.9338 0013574  75.0638 285.2062 14.38496373873275"}}, "geometry": {"type": "Point", "coordinates": [16.38905555956073, -29.728211825569833]}}, {"type": "Feature", "properties": {"norad_id": 35080, "name": "IRIDIUM 33 DEB", "group": "iridium-33-debris", "lat": -43.748759205902644, "lon": -126.19908398685072, "alt_km": 594.4218505413373, "timestamp": "2025-12-17T09:00:17.533410+00:00", "meta": {"OBJECT_NAME": "IRIDIUM 33 DEB", "OBJECT_ID": "1997-051PF", "EPOCH": "2025-12-16T11:00:08.968896", "MEAN_MOTION": 14.86515028, "ECCENTRICITY": 0.00596582, "INCLINATION": 86.2079, "RA_OF_ASC_NODE": 50.5991, "ARG_OF_PERICENTER": 166.9442, "MEAN_ANOMALY": 193.3344, "EPHEMERIS_TYPE": 0, "CLASSIFICATION_TYPE": "U", "NORAD_CAT_ID": 35080, "ELEMENT_SET_NO": 999, "REV_AT_EPOCH": 69743, "BSTAR": 0.0043661809, "MEAN_MOTION_DOT": 0.00040099, "MEAN_MOTION_DDOT": 0}, "tle": {"line1": "1 35080U 97051PF  25350.45843714  .00040099  00000+0  43662-2 0  9993", "line2": "2 35080  86.2079  50.5991 0059658 166.9442 193.3344 14.86515028697430"}}, "geometry": {"type": "Point", "coordinates": [-126.19908398685072, -43.748759205902644]}}, {"type": "Feature", "properties": {"norad_id": 35297, "name": "IRIDIUM 33 DEB", "group": "iridium-33-debris", "lat": -11.623305266621044, "lon": 60.03658563751716, "alt_km": 755.3476100553798, "timestamp": "2025-12-17T09:00:17.533420+00:00", "meta": {"OBJECT_NAME": "IRIDIUM 33 DEB", "OBJECT_ID": "1997-051PM", "EPOCH": "2025-12-16T11:27:21.167712", "MEAN_MOTION": 14.45174956, "ECCENTRICITY": 0.00178431, "INCLINATION": 86.3863, "RA_OF_ASC_NODE": 61.1645, "ARG_OF_PERICENTER": 129.6186, "MEAN_ANOMALY": 230.6595, "EPHEMERIS_TYPE": 0, "CLASSIFICATION_TYPE": "U", "NORAD_CAT_ID": 35297, "ELEMENT_SET_NO": 999, "REV_AT_EPOCH": 70480, "BSTAR": 0.00045011402, "MEAN_MOTION_DOT": 1.598e-05, "MEAN_MOTION_DDOT": 0}, "tle": {"line1": "1 35297U 97051PM  25350.47732833  .00001598  00000+0  45011-3 0  9996", "line2": "2 35297  86.3863  61.1645 0017843 129.6186 230.6595 14.45174956704806"}}, "geometry": {"type": "Point", "coordinates": [60.03658563751716, -11.623305266621044]}}, {"type": "Feature", "properties": {"norad_id": 35299, "name": "IRIDIUM 33 DEB", "group": "iridium-33-debris", "lat": -30.483311776790863, "lon": -146.64151176786265, "alt_km": 784.3133233920271, "timestamp": "2025-12-17T09:00:17.533430+00:00", "meta": {"OBJECT_NAME": "IRIDIUM 33 DEB", "OBJECT_ID": "1997-051PP", "EPOCH": "2025-12-16T10:40:21.082080", "MEAN_MOTION": 14.40880098, "ECCENTRICITY": 0.00589087, "INCLINATION": 86.2888, "RA_OF_ASC_NODE": 31.5738, "ARG_OF_PERICENTER": 90.5856, "MEAN_ANOMALY": 335.617, "EPHEMERIS_TYPE": 0, "CLASSIFICATION_TYPE": "U", "NORAD_CAT_ID": 35299, "ELEMENT_SET_NO": 999, "REV_AT_EPOCH": 86384, "BSTAR": 0.00056943755, "MEAN_MOTION_DOT": 1.883e-05, "MEAN_MOTION_DDOT": 0}, "tle": {"line1": "1 35299U 97051PP  25350.44468845  .00001883  00000+0  56944-3 0  9998", "line2": "2 35299  86.2888  31.5738 0058908  90.5856 335.6170 14.40880098863846"}}, "geometry": {"type": "Point", "coordinates": [-146.64151176786265, -30.483311776790863]}}]}